CCSDS_OMM_VERS = 2.0
CREATION_DATE  = 
ORIGINATOR     = 

OBJECT_NAME    = YOTSUBA-KULOVER
OBJECT_ID      = 1998-067XN
CENTER_NAME    = EARTH
REF_FRAME      = TEME
TIME_SYSTEM    = UTC
MEAN_ELEMENT_THEORY = SGP/SGP4

EPOCH          = 2026-02-23T13:54:22.371840
MEAN_MOTION    = 15.75076756
ECCENTRICITY   = .00057103
INCLINATION    = 51.6226
RA_OF_ASC_NODE = 130.1596
ARG_OF_PERICENTER = 352.2223
MEAN_ANOMALY   = 7.8687

EPHEMERIS_TYPE = 0
CLASSIFICATION_TYPE = U
NORAD_CAT_ID   = 65941
ELEMENT_SET_NO = 999
REV_AT_EPOCH   = 2127
BSTAR          = .10288857E-2
MEAN_MOTION_DOT = .159336E-2
MEAN_MOTION_DDOT = 0

CCSDS_OMM_VERS = 2.0
CREATION_DATE  = 
ORIGINATOR     = 

OBJECT_NAME    = BOTAN
OBJECT_ID      = 1998-067XP
CENTER_NAME    = EARTH
REF_FRAME      = TEME
TIME_SYSTEM    = UTC
MEAN_ELEMENT_THEORY = SGP/SGP4

EPOCH          = 2026-02-23T12:56:00.039840
MEAN_MOTION    = 15.99106624
ECCENTRICITY   = .00098592
INCLINATION    = 51.6123
RA_OF_ASC_NODE = 124.5371
ARG_OF_PERICENTER = 9.5514
MEAN_ANOMALY   = 350.5681

EPHEMERIS_TYPE = 0
CLASSIFICATION_TYPE = U
NORAD_CAT_ID   = 65942
ELEMENT_SET_NO = 999
REV_AT_EPOCH   = 2134
BSTAR          = .16447732E-2
MEAN_MOTION_DOT = .821692E-2
MEAN_MOTION_DDOT = .32163476E-3

CCSDS_OMM_VERS = 2.0
CREATION_DATE  = 
ORIGINATOR     = 

OBJECT_NAME    = E-KAGAKU-1
OBJECT_ID      = 1998-067XQ
CENTER_NAME    = EARTH
REF_FRAME      = TEME
TIME_SYSTEM    = UTC
MEAN_ELEMENT_THEORY = SGP/SGP4

EPOCH          = 2026-02-23T13:57:29.114208
MEAN_MOTION    = 15.74889096
ECCENTRICITY   = .00060339
INCLINATION    = 51.6247
RA_OF_ASC_NODE = 130.1887
ARG_OF_PERICENTER = 1.9984
MEAN_ANOMALY   = 358.1038

EPHEMERIS_TYPE = 0
CLASSIFICATION_TYPE = U
NORAD_CAT_ID   = 65943
ELEMENT_SET_NO = 999
REV_AT_EPOCH   = 2127
BSTAR          = .10036775E-2
MEAN_MOTION_DOT = .154069E-2
MEAN_MOTION_DDOT = 0

CCSDS_OMM_VERS = 2.0
CREATION_DATE  = 
ORIGINATOR     = 

OBJECT_NAME    = HRC MONOBLOCK CAMERA
OBJECT_ID      = 1998-067XR
CENTER_NAME    = EARTH
REF_FRAME      = TEME
TIME_SYSTEM    = UTC
MEAN_ELEMENT_THEORY = SGP/SGP4

EPOCH          = 2026-02-23T14:52:07.399776
MEAN_MOTION    = 15.60628492
ECCENTRICITY   = .00028419
INCLINATION    = 51.6276
RA_OF_ASC_NODE = 136.4561
ARG_OF_PERICENTER = 36.7007
MEAN_ANOMALY   = 323.4180

EPHEMERIS_TYPE = 0
CLASSIFICATION_TYPE = U
NORAD_CAT_ID   = 66052
ELEMENT_SET_NO = 999
REV_AT_EPOCH   = 2019
BSTAR          = .61688413E-3
MEAN_MOTION_DOT = .51909E-3
MEAN_MOTION_DDOT = 0

CCSDS_OMM_VERS = 2.0
CREATION_DATE  = 
ORIGINATOR     = 

OBJECT_NAME    = HTV-X1
OBJECT_ID      = 2025-241A
CENTER_NAME    = EARTH
REF_FRAME      = TEME
TIME_SYSTEM    = UTC
MEAN_ELEMENT_THEORY = SGP/SGP4

EPOCH          = 2026-02-23T13:44:35.994048
MEAN_MOTION    = 15.48241655
ECCENTRICITY   = .00084472
INCLINATION    = 51.6320
RA_OF_ASC_NODE = 142.1393
ARG_OF_PERICENTER = 125.7797
MEAN_ANOMALY   = 234.3978

EPHEMERIS_TYPE = 0
CLASSIFICATION_TYPE = U
NORAD_CAT_ID   = 66174
ELEMENT_SET_NO = 999
REV_AT_EPOCH   = 51
BSTAR          = .26725164E-3
MEAN_MOTION_DOT = .1393E-3
MEAN_MOTION_DDOT = 0

CCSDS_OMM_VERS = 2.0
CREATION_DATE  = 
ORIGINATOR     = 

OBJECT_NAME    = SZ-21 MODULE
OBJECT_ID      = 2025-246C
CENTER_NAME    = EARTH
REF_FRAME      = TEME
TIME_SYSTEM    = UTC
MEAN_ELEMENT_THEORY = SGP/SGP4

EPOCH          = 2026-02-23T08:38:33.423648
MEAN_MOTION    = 15.67371956
ECCENTRICITY   = .00015602
INCLINATION    = 41.4753
RA_OF_ASC_NODE = 291.4924
ARG_OF_PERICENTER = 291.3455
MEAN_ANOMALY   = 68.7220

EPHEMERIS_TYPE = 0
CLASSIFICATION_TYPE = U
NORAD_CAT_ID   = 66515
ELEMENT_SET_NO = 999
REV_AT_EPOCH   = 1582
BSTAR          = .3418983E-3
MEAN_MOTION_DOT = .37859E-3
MEAN_MOTION_DDOT = 0

CCSDS_OMM_VERS = 2.0
CREATION_DATE  = 
ORIGINATOR     = 

OBJECT_NAME    = SHENZHOU-22
OBJECT_ID      = 2025-272A
CENTER_NAME    = EARTH
REF_FRAME      = TEME
TIME_SYSTEM    = UTC
MEAN_ELEMENT_THEORY = SGP/SGP4

EPOCH          = 2026-02-23T02:55:55.792992
MEAN_MOTION    = 15.60017570
ECCENTRICITY   = .0005303
INCLINATION    = 41.4667
RA_OF_ASC_NODE = 296.7550
ARG_OF_PERICENTER = 176.3484
MEAN_ANOMALY   = 183.7394

EPHEMERIS_TYPE = 0
CLASSIFICATION_TYPE = U
NORAD_CAT_ID   = 66645
ELEMENT_SET_NO = 999
REV_AT_EPOCH   = 26764
BSTAR          = .23479833E-3
MEAN_MOTION_DOT = .19262E-3
MEAN_MOTION_DDOT = 0

CCSDS_OMM_VERS = 2.0
CREATION_DATE  = 
ORIGINATOR     = 

OBJECT_NAME    = SOYUZ-MS 28
OBJECT_ID      = 2025-275A
CENTER_NAME    = EARTH
REF_FRAME      = TEME
TIME_SYSTEM    = UTC
MEAN_ELEMENT_THEORY = SGP/SGP4

EPOCH          = 2026-02-23T13:44:35.994048
MEAN_MOTION    = 15.48241655
ECCENTRICITY   = .00084472
INCLINATION    = 51.6320
RA_OF_ASC_NODE = 142.1393
ARG_OF_PERICENTER = 125.7797
MEAN_ANOMALY   = 234.3978

EPHEMERIS_TYPE = 0
CLASSIFICATION_TYPE = U
NORAD_CAT_ID   = 66664
ELEMENT_SET_NO = 999
REV_AT_EPOCH   = 128
BSTAR          = .26725164E-3
MEAN_MOTION_DOT = .1393E-3
MEAN_MOTION_DDOT = 0

CCSDS_OMM_VERS = 2.0
CREATION_DATE  = 
ORIGINATOR     = 

OBJECT_NAME    = DUPLEX
OBJECT_ID      = 1998-067XS
CENTER_NAME    = EARTH
REF_FRAME      = TEME
TIME_SYSTEM    = UTC
MEAN_ELEMENT_THEORY = SGP/SGP4

EPOCH          = 2026-02-23T12:26:12.690816
MEAN_MOTION    = 15.55205642
ECCENTRICITY   = .00017095
INCLINATION    = 51.6289
RA_OF_ASC_NODE = 140.2797
ARG_OF_PERICENTER = 73.5157
MEAN_ANOMALY   = 286.6022

EPHEMERIS_TYPE = 0
CLASSIFICATION_TYPE = U
NORAD_CAT_ID   = 66906
ELEMENT_SET_NO = 999
REV_AT_EPOCH   = 1292
BSTAR          = .52660861E-3
MEAN_MOTION_DOT = .35942E-3
MEAN_MOTION_DDOT = 0

CCSDS_OMM_VERS = 2.0
CREATION_DATE  = 
ORIGINATOR     = 

OBJECT_NAME    = ISS OBJECT XT
OBJECT_ID      = 1998-067XT
CENTER_NAME    = EARTH
REF_FRAME      = TEME
TIME_SYSTEM    = UTC
MEAN_ELEMENT_THEORY = SGP/SGP4

EPOCH          = 2026-02-23T05:35:38.417856
MEAN_MOTION    = 15.64968587
ECCENTRICITY   = .0003729
INCLINATION    = 51.6256
RA_OF_ASC_NODE = 139.1200
ARG_OF_PERICENTER = 358.9452
MEAN_ANOMALY   = 1.1535

EPHEMERIS_TYPE = 0
CLASSIFICATION_TYPE = U
NORAD_CAT_ID   = 66907
ELEMENT_SET_NO = 999
REV_AT_EPOCH   = 1291
BSTAR          = .13104E-2
MEAN_MOTION_DOT = .132753E-2
MEAN_MOTION_DDOT = 0

CCSDS_OMM_VERS = 2.0
CREATION_DATE  = 
ORIGINATOR     = 

OBJECT_NAME    = ISS OBJECT XU
OBJECT_ID      = 1998-067XU
CENTER_NAME    = EARTH
REF_FRAME      = TEME
TIME_SYSTEM    = UTC
MEAN_ELEMENT_THEORY = SGP/SGP4

EPOCH          = 2026-02-23T14:45:54.189792
MEAN_MOTION    = 15.65151159
ECCENTRICITY   = .0003765
INCLINATION    = 51.6253
RA_OF_ASC_NODE = 137.1677
ARG_OF_PERICENTER = 5.3137
MEAN_ANOMALY   = 354.7898

EPHEMERIS_TYPE = 0
CLASSIFICATION_TYPE = U
NORAD_CAT_ID   = 66908
ELEMENT_SET_NO = 999
REV_AT_EPOCH   = 1297
BSTAR          = .13000239E-2
MEAN_MOTION_DOT = .132657E-2
MEAN_MOTION_DDOT = 0

CCSDS_OMM_VERS = 2.0
CREATION_DATE  = 
ORIGINATOR     = 

OBJECT_NAME    = SILVERSAT
OBJECT_ID      = 1998-067XV
CENTER_NAME    = EARTH
REF_FRAME      = TEME
TIME_SYSTEM    = UTC
MEAN_ELEMENT_THEORY = SGP/SGP4

EPOCH          = 2026-02-23T06:07:25.236480
MEAN_MOTION    = 15.67000186
ECCENTRICITY   = .0004615
INCLINATION    = 51.6249
RA_OF_ASC_NODE = 138.5152
ARG_OF_PERICENTER = 357.9076
MEAN_ANOMALY   = 2.1899

EPHEMERIS_TYPE = 0
CLASSIFICATION_TYPE = U
NORAD_CAT_ID   = 66909
ELEMENT_SET_NO = 999
REV_AT_EPOCH   = 1292
BSTAR          = .143E-2
MEAN_MOTION_DOT = .15777E-2
MEAN_MOTION_DDOT = 0

