YOTSUBA-KULOVER         
1 65941U 98067XN  26054.57942560  .00159336  00000+0  10289-2 0  9998
2 65941  51.6226 130.1596 0005710 352.2223   7.8687 15.75076756 21273
BOTAN                   
1 65942U 98067XP  26054.53888935  .00821692  32163-3  16448-2 0  9993
2 65942  51.6123 124.5371 0009859   9.5514 350.5681 15.99106624 21345
E-KAGAKU-1              
1 65943U 98067XQ  26054.58158697  .00154069  00000+0  10037-2 0  9990
2 65943  51.6247 130.1887 0006033   1.9984 358.1038 15.74889096 21272
HRC MONOBLOCK CAMERA    
1 66052U 98067XR  26054.61953009  .00051909  00000+0  61688-3 0  9994
2 66052  51.6276 136.4561 0002841  36.7007 323.4180 15.60628492 20198
HTV-X1                  
1 66174U 25241A   26054.57263882  .00013930  00000+0  26725-3 0  9996
2 66174  51.6320 142.1393 0008447 125.7797 234.3978 15.48241655   510
SZ-21 MODULE            
1 66515U 25246C   26054.36010907  .00037859  00000+0  34190-3 0  9996
2 66515  41.4753 291.4924 0001560 291.3455  68.7220 15.67371956 15822
SHENZHOU-22             
1 66645U 25272A   26054.12217353  .00019262  00000+0  23480-3 0  9995
2 66645  41.4667 296.7550 0005303 176.3484 183.7394 15.60017570267647
SOYUZ-MS 28             
1 66664U 25275A   26054.57263882  .00013930  00000+0  26725-3 0  9997
2 66664  51.6320 142.1393 0008447 125.7797 234.3978 15.48241655  1289
DUPLEX                  
1 66906U 98067XS  26054.51820244  .00035942  00000+0  52661-3 0  9995
2 66906  51.6289 140.2797 0001709  73.5157 286.6022 15.55205642 12920
ISS OBJECT XT           
1 66907U 98067XT  26054.23308354  .00132753  00000+0  13104-2 0  9994
2 66907  51.6256 139.1200 0003729 358.9452   1.1535 15.64968587 12915
ISS OBJECT XU           
1 66908U 98067XU  26054.61521053  .00132657  00000+0  13000-2 0  9998
2 66908  51.6253 137.1677 0003765   5.3137 354.7898 15.65151159 12977
SILVERSAT               
1 66909U 98067XV  26054.25515320  .00157770  00000+0  14300-2 0  9996
2 66909  51.6249 138.5152 0004615 357.9076   2.1899 15.67000186 12924
